{"type": "FeatureCollection", "features": [ {"type": "Feature", "properties": {"norad_id": 33799, "name": "COSMOS 2251 DEB", "group": "cosmos-2251-debris", "lat": 8.170939845884227, "lon": 92.18673602307516, "alt_km": 647.4429792591618, "timestamp": "2025-12-08T15:42:50.188584+00:00", "meta": {"OBJECT_NAME": "COSMOS 2251 DEB", "OBJECT_ID": "1993-036AQ", "EPOCH": "2025-12-08T06:02:18.231360", "MEAN_MOTION": 14.79467402, "ECCENTRICITY": 0.00238211, "INCLINATION": 74.0326, "RA_OF_ASC_NODE": 90.6238, "ARG_OF_PERICENTER": 162.9648, "MEAN_ANOMALY": 219.4674, "EPHEMERIS_TYPE": 0, "CLASSIFICATION_TYPE": "U", "NORAD_CAT_ID": 33799, "ELEMENT_SET_NO": 999, "REV_AT_EPOCH": 88745, "BSTAR": 0.0015292632, "MEAN_MOTION_DOT": 0.00011465, "MEAN_MOTION_DDOT": 0}, "tle": {"line1": "1 33799U 93036AQ  25342.25159990  .00011465  00000+0  15293-2 0  9996", "line2": "2 33799  74.0326  90.6238 0023821 162.9648 219.4674 14.79467402887454"}}, "geometry": {"type": "Point", "coordinates": [92.18673602307516, 8.170939845884227]}}, {"type": "Feature", "properties": {"norad_id": 33805, "name": "COSMOS 2251 DEB", "group": "cosmos-2251-debris", "lat": 70.45176337153528, "lon": 85.3540141381725, "alt_km": 664.1721230842559, "timestamp": "2025-12-08T15:42:50.188594+00:00", "meta": {"OBJECT_NAME": "COSMOS 2251 DEB", "OBJECT_ID": "1993-036AW", "EPOCH": "2025-12-08T07:00:54.543744", "MEAN_MOTION": 14.57840732, "ECCENTRICITY": 0.00603572, "INCLINATION": 74.0317, "RA_OF_ASC_NODE": 319.7916, "ARG_OF_PERICENTER": 150.037, "MEAN_ANOMALY": 210.4272, "EPHEMERIS_TYPE": 0, "CLASSIFICATION_TYPE": "U", "NORAD_CAT_ID": 33805, "ELEMENT_SET_NO": 999, "REV_AT_EPOCH": 89162, "BSTAR": 0.00044531142, "MEAN_MOTION_DOT": 2.061e-05, "MEAN_MOTION_DDOT": 0}, "tle": {"line1": "1 33805U 93036AW  25342.29229796  .00002061  00000+0  44531-3 0  9990", "line2": "2 33805  74.0317 319.7916 0060357 150.0370 210.4272 14.57840732891621"}}, "geometry": {"type": "Point", "coordinates": [85.3540141381725, 70.45176337153528]}}, {"type": "Feature", "properties": {"norad_id": 33811, "name": "COSMOS 2251 DEB", "group": "cosmos-2251-debris", "lat": -5.3748858410014515, "lon": -50.43647244979735, "alt_km": 537.8421236736476, "timestamp": "2025-12-08T15:42:50.188605+00:00", "meta": {"OBJECT_NAME": "COSMOS 2251 DEB", "OBJECT_ID": "1993-036BC", "EPOCH": "2025-12-08T06:39:30.341664", "MEAN_MOTION": 15.05046186, "ECCENTRICITY": 0.00307551, "INCLINATION": 73.8382, "RA_OF_ASC_NODE": 311.9089, "ARG_OF_PERICENTER": 33.3582, "MEAN_ANOMALY": 77.8873, "EPHEMERIS_TYPE": 0, "CLASSIFICATION_TYPE": "U", "NORAD_CAT_ID": 33811, "ELEMENT_SET_NO": 999, "REV_AT_EPOCH": 89951, "BSTAR": 0.0015091313, "MEAN_MOTION_DOT": 0.00021697, "MEAN_MOTION_DDOT": 0}, "tle": {"line1": "1 33811U 93036BC  25342.27743451  .00021697  00000+0  15091-2 0  9998", "line2": "2 33811  73.8382 311.9089 0030755  33.3582  77.8873 15.05046186899512"}}, "geometry": {"type": "Point", "coordinates": [-50.43647244979735, -5.3748858410014515]}}, {"type": "Feature", "properties": {"norad_id": 33815, "name": "COSMOS 2251 DEB", "group": "cosmos-2251-debris", "lat": -60.90010786997864, "lon": 36.29295252764618, "alt_km": 520.6978138191807, "timestamp": "2025-12-08T15:42:50.188616+00:00", "meta": {"OBJECT_NAME": "COSMOS 2251 DEB", "OBJECT_ID": "1993-036BG", "EPOCH": "2025-12-08T00:56:45.883680", "MEAN_MOTION": 15.16404509, "ECCENTRICITY": 0.00035295, "INCLINATION": 73.9535, "RA_OF_ASC_NODE": 186.4424, "ARG_OF_PERICENTER": 232.7391, "MEAN_ANOMALY": 254.7653, "EPHEMERIS_TYPE": 0, "CLASSIFICATION_TYPE": "U", "NORAD_CAT_ID": 33815, "ELEMENT_SET_NO": 999, "REV_AT_EPOCH": 88299, "BSTAR": 0.0063573472, "MEAN_MOTION_DOT": 0.00125714, "MEAN_MOTION_DDOT": 0}, "tle": {"line1": "1 33815U 93036BG  25342.03941995  .00125714  00000+0  63573-2 0  9992", "line2": "2 33815  73.9535 186.4424 0003529 232.7391 254.7653 15.16404509882992"}}, "geometry": {"type": "Point", "coordinates": [36.29295252764618, -60.90010786997864]}}, {"type": "Feature", "properties": {"norad_id": 33816, "name": "COSMOS 2251 DEB", "group": "cosmos-2251-debris", "lat": -58.30491922996386, "lon": 84.42216946055186, "alt_km": 1156.6034061780938, "timestamp": "2025-12-08T15:42:50.188626+00:00", "meta": {"OBJECT_NAME": "COSMOS 2251 DEB", "OBJECT_ID": "1993-036BH", "EPOCH": "2025-12-07T17:26:26.699424", "MEAN_MOTION": 13.81773006, "ECCENTRICITY": 0.02650074, "INCLINATION": 73.8944, "RA_OF_ASC_NODE": 113.892, "ARG_OF_PERICENTER": 127.7989, "MEAN_ANOMALY": 234.7453, "EPHEMERIS_TYPE": 0, "CLASSIFICATION_TYPE": "U", "NORAD_CAT_ID": 33816, "ELEMENT_SET_NO": 999, "REV_AT_EPOCH": 84604, "BSTAR": 0.00094699844, "MEAN_MOTION_DOT": 1.302e-05, "MEAN_MOTION_DDOT": 0}, "tle": {"line1": "1 33816U 93036BH  25341.72669791  .00001302  00000+0  94700-3 0  9992", "line2": "2 33816  73.8944 113.8920 0265007 127.7989 234.7453 13.81773006846041"}}, "geometry": {"type": "Point", "coordinates": [84.42216946055186, -58.30491922996386]}}, {"type": "Feature", "properties": {"norad_id": 33818, "name": "COSMOS 2251 DEB", "group": "cosmos-2251-debris", "lat": -26.340822445870234, "lon": 2.808564478355491, "alt_km": 521.1068074768236, "timestamp": "2025-12-08T15:42:50.188637+00:00", "meta": {"OBJECT_NAME": "COSMOS 2251 DEB", "OBJECT_ID": "1993-036BK", "EPOCH": "2025-12-08T07:38:01.796640", "MEAN_MOTION": 15.11972278, "ECCENTRICITY": 0.00281556, "INCLINATION": 74.0753, "RA_OF_ASC_NODE": 175.3767, "ARG_OF_PERICENTER": 165.7703, "MEAN_ANOMALY": 9.6209, "EPHEMERIS_TYPE": 0, "CLASSIFICATION_TYPE": "U", "NORAD_CAT_ID": 33818, "ELEMENT_SET_NO": 999, "REV_AT_EPOCH": 89795, "BSTAR": 0.0024803803, "MEAN_MOTION_DOT": 0.00043189, "MEAN_MOTION_DDOT": 0}, "tle": {"line1": "1 33818U 93036BK  25342.31807635  .00043189  00000+0  24804-2 0  9997", "line2": "2 33818  74.0753 175.3767 0028155 165.7703   9.6209 15.11972278897954"}}, "geometry": {"type": "Point", "coordinates": [2.808564478355491, -26.340822445870234]}}, {"type": "Feature", "properties": {"norad_id": 33819, "name": "COSMOS 2251 DEB", "group": "cosmos-2251-debris", "lat": 62.17699747424035, "lon": -110.26745387624489, "alt_km": 715.896969383406, "timestamp": "2025-12-08T15:42:50.188648+00:00", "meta": {"OBJECT_NAME": "COSMOS 2251 DEB", "OBJECT_ID": "1993-036BL", "EPOCH": "2025-12-08T02:33:23.647680", "MEAN_MOTION": 14.32197842, "ECCENTRICITY": 0.0088893, "INCLINATION": 74.1793, "RA_OF_ASC_NODE": 218.226, "ARG_OF_PERICENTER": 80.9641, "MEAN_ANOMALY": 40.6702, "EPHEMERIS_TYPE": 0, "CLASSIFICATION_TYPE": "U", "NORAD_CAT_ID": 33819, "ELEMENT_SET_NO": 999, "REV_AT_EPOCH": 87429, "BSTAR": 0.00087236618, "MEAN_MOTION_DOT": 2.431e-05, "MEAN_MOTION_DDOT": 0}, "tle": {"line1": "1 33819U 93036BL  25342.10652370  .00002431  00000+0  87237-3 0  9994", "line2": "2 33819  74.1793 218.2260 0088893  80.9641  40.6702 14.32197842874292"}}, "geometry": {"type": "Point", "coordinates": [-110.26745387624489, 62.17699747424035]}}, {"type": "Feature", "properties": {"norad_id": 33821, "name": "COSMOS 2251 DEB", "group": "cosmos-2251-debris", "lat": 0.2941244511675617, "lon": -28.613250962876908, "alt_km": 457.4502146475779, "timestamp": "2025-12-08T15:42:50.188658+00:00", "meta": {"OBJECT_NAME": "COSMOS 2251 DEB", "OBJECT_ID": "1993-036BN", "EPOCH": "2025-12-07T21:36:29.624832", "MEAN_MOTION": 15.24869575, "ECCENTRICITY": 0.00530994, "INCLINATION": 74.0293, "RA_OF_ASC_NODE": 153.0642, "ARG_OF_PERICENTER": 187.7564, "MEAN_ANOMALY": 172.2822, "EPHEMERIS_TYPE": 0, "CLASSIFICATION_TYPE": "U", "NORAD_CAT_ID": 33821, "ELEMENT_SET_NO": 999, "REV_AT_EPOCH": 74927, "BSTAR": 0.0014849719, "MEAN_MOTION_DOT": 0.00038592, "MEAN_MOTION_DDOT": 0}, "tle": {"line1": "1 33821U 93036BN  25341.90034288  .00038592  00000+0  14850-2 0  9993", "line2": "2 33821  74.0293 153.0642 0053099 187.7564 172.2822 15.24869575749274"}}, "geometry": {"type": "Point", "coordinates": [-28.613250962876908, 0.2941244511675617]}}, {"type": "Feature", "properties": {"norad_id": 33822, "name": "COSMOS 2251 DEB", "group": "cosmos-2251-debris", "lat": 6.161181890410981, "lon": 19.126513260598976, "alt_km": 819.8352136882149, "timestamp": "2025-12-08T15:42:50.188669+00:00", "meta": {"OBJECT_NAME": "COSMOS 2251 DEB", "OBJECT_ID": "1993-036BP", "EPOCH": "2025-12-08T01:52:47.203104", "MEAN_MOTION": 14.13036225, "ECCENTRICITY": 0.0153709, "INCLINATION": 74.0693, "RA_OF_ASC_NODE": 201.9105, "ARG_OF_PERICENTER": 249.3355, "MEAN_ANOMALY": 234.7647, "EPHEMERIS_TYPE": 0, "CLASSIFICATION_TYPE": "U", "NORAD_CAT_ID": 33822, "ELEMENT_SET_NO": 999, "REV_AT_EPOCH": 85988, "BSTAR": 0.0016546481, "MEAN_MOTION_DOT": 3.43e-05, "MEAN_MOTION_DDOT": 0}, "tle": {"line1": "1 33822U 93036BP  25342.07832411  .00003430  00000+0  16546-2 0  9994", "line2": "2 33822  74.0693 201.9105 0153709 249.3355 234.7647 14.13036225859881"}}, "geometry": {"type": "Point", "coordinates": [19.126513260598976, 6.161181890410981]}}, {"type": "Feature", "properties": {"norad_id": 33823, "name": "COSMOS 2251 DEB", "group": "cosmos-2251-debris", "lat": -21.2956740220063, "lon": -17.007531593576974, "alt_km": 873.3242148653808, "timestamp": "2025-12-08T15:42:50.188680+00:00", "meta": {"OBJECT_NAME": "COSMOS 2251 DEB", "OBJECT_ID": "1993-036BQ", "EPOCH": "2025-12-08T04:59:22.157376", "MEAN_MOTION": 13.98933817, "ECCENTRICITY": 0.02092619, "INCLINATION": 73.8093, "RA_OF_ASC_NODE": 157.2727, "ARG_OF_PERICENTER": 283.1609, "MEAN_ANOMALY": 191.747, "EPHEMERIS_TYPE": 0, "CLASSIFICATION_TYPE": "U", "NORAD_CAT_ID": 33823, "ELEMENT_SET_NO": 999, "REV_AT_EPOCH": 85546, "BSTAR": 0.0012631795, "MEAN_MOTION_DOT": 2.173e-05, "MEAN_MOTION_DDOT": 0}, "tle": {"line1": "1 33823U 93036BQ  25342.20789534  .00002173  00000+0  12632-2 0  9992", "line2": "2 33823  73.8093 157.2727 0209261 283.1609 191.7470 13.98933817855460"}}, "geometry": {"type": "Point", "coordinates": [-17.007531593576974, -21.2956740220063]}}]}